ONEWEB-0116             
1 48046U 21025E   26154.49081339 -.00000365  00000+0 -10355-2 0  9998
2 48046  87.8953 322.9445 0001770  88.4206 271.7126 13.13469607251853
ONEWEB-0150             
1 48047U 21025F   26155.00037895  .00000279  00000+0  72946-3 0  9992
2 48047  87.8952 322.8400 0002026  95.5404 264.5956 13.13468909251818
ONEWEB-0107             
1 48048U 21025G   26155.00207175  .00000252  00000+0  65473-3 0  9991
2 48048  87.8953 322.8358 0001821 100.9413 259.1921 13.13468882251794
ONEWEB-0101             
1 48049U 21025H   26154.96482569 -.00000195  00000+0 -56897-3 0  9996
2 48049  87.8942 322.8602 0001678  96.0944 264.0376 13.13470300251763
ONEWEB-0113             
1 48050U 21025J   26154.99344835  .00000320  00000+0  83673-3 0  9994
2 48050  87.8966 322.7712 0001598  76.0548 284.0759 13.13895445251871
ONEWEB-0112             
1 48051U 21025K   26155.00715074  .00000121  00000+0  29674-3 0  9995
2 48051  87.8955 322.8328 0001604  99.1576 260.9734 13.13468865251866
ONEWEB-0156             
1 48052U 21025L   26155.01560914 -.00000062  00000+0 -20382-3 0  9991
2 48052  87.8954 322.8411 0001866  96.3386 263.7956 13.13468936251841
ONEWEB-0161             
1 48053U 21025M   26154.99022359  .00000340  00000+0  89506-3 0  9994
2 48053  87.8945 322.8480 0001885 100.0263 260.1079 13.13469896251771
ONEWEB-0158             
1 48054U 21025N   26155.02576606 -.00000761  00000+0 -21192-2 0  9994
2 48054  87.8949 322.8373 0001621  82.8723 277.2591 13.13464873251906
ONEWEB-0157             
1 48055U 21025P   26154.97498679 -.00000003  00000+0 -43275-4 0  9998
2 48055  87.8953 322.8540 0001815 106.1283 254.0046 13.13469621251830
ONEWEB-0162             
1 48056U 21025Q   26155.02732004 -.00000276  00000+0 -79089-3 0  9992
2 48056  87.8948 322.8444 0001968  93.7951 266.3403 13.13468945251819
ONEWEB-0155             
1 48057U 21025R   26154.50098190 -.00000258  00000+0 -74028-3 0  9994
2 48057  87.8948 322.9454 0001661  97.3811 262.7507 13.13469454251885
ONEWEB-0149             
1 48058U 21025S   26154.98006644  .00000108  00000+0  26202-3 0  9993
2 48058  87.8954 322.8533 0002029  94.6206 265.5155 13.13469572251754
ONEWEB-0148             
1 48059U 21025T   26155.01899469 -.00000148  00000+0 -43909-3 0  9993
2 48059  87.8946 322.8530 0002369  98.3085 261.8313 13.13468798251884
ONEWEB-0160             
1 48060U 21025U   26154.95974654 -.00000269  00000+0 -77221-3 0  9995
2 48060  87.8945 322.8610 0001859  69.6190 290.5139 13.13470305251821
ONEWEB-0163             
1 48061U 21025V   26155.02068659 -.00000231  00000+0 -66880-3 0  9992
2 48061  87.8953 322.8426 0001781 102.7132 257.4196 13.13469426251956
