[{"OBJECT_NAME":"ONEWEB-0116","OBJECT_ID":"2021-025E","EPOCH":"2026-06-03T11:46:46.276896","MEAN_MOTION":13.13469607,"ECCENTRICITY":0.000177,"INCLINATION":87.8953,"RA_OF_ASC_NODE":322.9445,"ARG_OF_PERICENTER":88.4206,"MEAN_ANOMALY":271.7126,"EPHEMERIS_TYPE":0,"CLASSIFICATION_TYPE":"U","NORAD_CAT_ID":48046,"ELEMENT_SET_NO":999,"REV_AT_EPOCH":25185,"BSTAR":-0.0010355,"MEAN_MOTION_DOT":-3.65e-06,"MEAN_MOTION_DDOT":0.0},{"OBJECT_NAME":"ONEWEB-0150","OBJECT_ID":"2021-025F","EPOCH":"2026-06-04T00:00:32.741280","MEAN_MOTION":13.13468909,"ECCENTRICITY":0.0002026,"INCLINATION":87.8952,"RA_OF_ASC_NODE":322.84,"ARG_OF_PERICENTER":95.5404,"MEAN_ANOMALY":264.5956,"EPHEMERIS_TYPE":0,"CLASSIFICATION_TYPE":"U","NORAD_CAT_ID":48047,"ELEMENT_SET_NO":999,"REV_AT_EPOCH":25181,"BSTAR":0.00072946,"MEAN_MOTION_DOT":2.79e-06,"MEAN_MOTION_DDOT":0.0},{"OBJECT_NAME":"ONEWEB-0107","OBJECT_ID":"2021-025G","EPOCH":"2026-06-04T00:02:58.999200","MEAN_MOTION":13.13468882,"ECCENTRICITY":0.0001821,"INCLINATION":87.8953,"RA_OF_ASC_NODE":322.8358,"ARG_OF_PERICENTER":100.9413,"MEAN_ANOMALY":259.1921,"EPHEMERIS_TYPE":0,"CLASSIFICATION_TYPE":"U","NORAD_CAT_ID":48048,"ELEMENT_SET_NO":999,"REV_AT_EPOCH":25179,"BSTAR":0.0006547300000000001,"MEAN_MOTION_DOT":2.52e-06,"MEAN_MOTION_DDOT":0.0},{"OBJECT_NAME":"ONEWEB-0101","OBJECT_ID":"2021-025H","EPOCH":"2026-06-03T23:09:20.939616","MEAN_MOTION":13.134703,"ECCENTRICITY":0.0001678,"INCLINATION":87.8942,"RA_OF_ASC_NODE":322.8602,"ARG_OF_PERICENTER":96.0944,"MEAN_ANOMALY":264.0376,"EPHEMERIS_TYPE":0,"CLASSIFICATION_TYPE":"U","NORAD_CAT_ID":48049,"ELEMENT_SET_NO":999,"REV_AT_EPOCH":25176,"BSTAR":-0.00056897,"MEAN_MOTION_DOT":-1.95e-06,"MEAN_MOTION_DDOT":0.0},{"OBJECT_NAME":"ONEWEB-0113","OBJECT_ID":"2021-025J","EPOCH":"2026-06-03T23:50:33.937440","MEAN_MOTION":13.13895445,"ECCENTRICITY":0.0001598,"INCLINATION":87.8966,"RA_OF_ASC_NODE":322.7712,"ARG_OF_PERICENTER":76.0548,"MEAN_ANOMALY":284.0759,"EPHEMERIS_TYPE":0,"CLASSIFICATION_TYPE":"U","NORAD_CAT_ID":48050,"ELEMENT_SET_NO":999,"REV_AT_EPOCH":25187,"BSTAR":0.0008367299999999999,"MEAN_MOTION_DOT":3.2e-06,"MEAN_MOTION_DDOT":0.0},{"OBJECT_NAME":"ONEWEB-0112","OBJECT_ID":"2021-025K","EPOCH":"2026-06-04T00:10:17.823936","MEAN_MOTION":13.13468865,"ECCENTRICITY":0.0001604,"INCLINATION":87.8955,"RA_OF_ASC_NODE":322.8328,"ARG_OF_PERICENTER":99.1576,"MEAN_ANOMALY":260.9734,"EPHEMERIS_TYPE":0,"CLASSIFICATION_TYPE":"U","NORAD_CAT_ID":48051,"ELEMENT_SET_NO":999,"REV_AT_EPOCH":25186,"BSTAR":0.00029674000000000004,"MEAN_MOTION_DOT":1.21e-06,"MEAN_MOTION_DDOT":0.0},{"OBJECT_NAME":"ONEWEB-0156","OBJECT_ID":"2021-025L","EPOCH":"2026-06-04T00:22:28.629696","MEAN_MOTION":13.13468936,"ECCENTRICITY":0.0001866,"INCLINATION":87.8954,"RA_OF_ASC_NODE":322.8411,"ARG_OF_PERICENTER":96.3386,"MEAN_ANOMALY":263.7956,"EPHEMERIS_TYPE":0,"CLASSIFICATION_TYPE":"U","NORAD_CAT_ID":48052,"ELEMENT_SET_NO":999,"REV_AT_EPOCH":25184,"BSTAR":-0.00020382,"MEAN_MOTION_DOT":-6.2e-07,"MEAN_MOTION_DDOT":0.0},{"OBJECT_NAME":"ONEWEB-0161","OBJECT_ID":"2021-025M","EPOCH":"2026-06-03T23:45:55.318176","MEAN_MOTION":13.13469896,"ECCENTRICITY":0.0001885,"INCLINATION":87.8945,"RA_OF_ASC_NODE":322.848,"ARG_OF_PERICENTER":100.0263,"MEAN_ANOMALY":260.1079,"EPHEMERIS_TYPE":0,"CLASSIFICATION_TYPE":"U","NORAD_CAT_ID":48053,"ELEMENT_SET_NO":999,"REV_AT_EPOCH":25177,"BSTAR":0.0008950599999999999,"MEAN_MOTION_DOT":3.4e-06,"MEAN_MOTION_DDOT":0.0},{"OBJECT_NAME":"ONEWEB-0158","OBJECT_ID":"2021-025N","EPOCH":"2026-06-04T00:37:06.187584","MEAN_MOTION":13.13464873,"ECCENTRICITY":0.0001621,"INCLINATION":87.8949,"RA_OF_ASC_NODE":322.8373,"ARG_OF_PERICENTER":82.8723,"MEAN_ANOMALY":277.2591,"EPHEMERIS_TYPE":0,"CLASSIFICATION_TYPE":"U","NORAD_CAT_ID":48054,"ELEMENT_SET_NO":999,"REV_AT_EPOCH":25190,"BSTAR":-0.0021192,"MEAN_MOTION_DOT":-7.61e-06,"MEAN_MOTION_DDOT":0.0},{"OBJECT_NAME":"ONEWEB-0157","OBJECT_ID":"2021-025P","EPOCH":"2026-06-03T23:23:58.858656","MEAN_MOTION":13.13469621,"ECCENTRICITY":0.0001815,"INCLINATION":87.8953,"RA_OF_ASC_NODE":322.854,"ARG_OF_PERICENTER":106.1283,"MEAN_ANOMALY":254.0046,"EPHEMERIS_TYPE":0,"CLASSIFICATION_TYPE":"U","NORAD_CAT_ID":48055,"ELEMENT_SET_NO":999,"REV_AT_EPOCH":25183,"BSTAR":-4.3275e-05,"MEAN_MOTION_DOT":-3e-08,"MEAN_MOTION_DDOT":0.0},{"OBJECT_NAME":"ONEWEB-0162","OBJECT_ID":"2021-025Q","EPOCH":"2026-06-04T00:39:20.451456","MEAN_MOTION":13.13468945,"ECCENTRICITY":0.0001968,"INCLINATION":87.8948,"RA_OF_ASC_NODE":322.8444,"ARG_OF_PERICENTER":93.7951,"MEAN_ANOMALY":266.3403,"EPHEMERIS_TYPE":0,"CLASSIFICATION_TYPE":"U","NORAD_CAT_ID":48056,"ELEMENT_SET_NO":999,"REV_AT_EPOCH":25181,"BSTAR":-0.00079089,"MEAN_MOTION_DOT":-2.76e-06,"MEAN_MOTION_DDOT":0.0},{"OBJECT_NAME":"ONEWEB-0155","OBJECT_ID":"2021-025R","EPOCH":"2026-06-03T12:01:24.836160","MEAN_MOTION":13.13469454,"ECCENTRICITY":0.0001661,"INCLINATION":87.8948,"RA_OF_ASC_NODE":322.9454,"ARG_OF_PERICENTER":97.3811,"MEAN_ANOMALY":262.7507,"EPHEMERIS_TYPE":0,"CLASSIFICATION_TYPE":"U","NORAD_CAT_ID":48057,"ELEMENT_SET_NO":999,"REV_AT_EPOCH":25188,"BSTAR":-0.0007402800000000001,"MEAN_MOTION_DOT":-2.58e-06,"MEAN_MOTION_DDOT":0.0},{"OBJECT_NAME":"ONEWEB-0149","OBJECT_ID":"2021-025S","EPOCH":"2026-06-03T23:31:17.740416","MEAN_MOTION":13.13469572,"ECCENTRICITY":0.0002029,"INCLINATION":87.8954,"RA_OF_ASC_NODE":322.8533,"ARG_OF_PERICENTER":94.6206,"MEAN_ANOMALY":265.5155,"EPHEMERIS_TYPE":0,"CLASSIFICATION_TYPE":"U","NORAD_CAT_ID":48058,"ELEMENT_SET_NO":999,"REV_AT_EPOCH":25175,"BSTAR":0.00026201999999999996,"MEAN_MOTION_DOT":1.08e-06,"MEAN_MOTION_DDOT":0.0},{"OBJECT_NAME":"ONEWEB-0148","OBJECT_ID":"2021-025T","EPOCH":"2026-06-04T00:27:21.141216","MEAN_MOTION":13.13468798,"ECCENTRICITY":0.0002369,"INCLINATION":87.8946,"RA_OF_ASC_NODE":322.853,"ARG_OF_PERICENTER":98.3085,"MEAN_ANOMALY":261.8313,"EPHEMERIS_TYPE":0,"CLASSIFICATION_TYPE":"U","NORAD_CAT_ID":48059,"ELEMENT_SET_NO":999,"REV_AT_EPOCH":25188,"BSTAR":-0.00043909,"MEAN_MOTION_DOT":-1.48e-06,"MEAN_MOTION_DDOT":0.0},{"OBJECT_NAME":"ONEWEB-0160","OBJECT_ID":"2021-025U","EPOCH":"2026-06-03T23:02:02.101056","MEAN_MOTION":13.13470305,"ECCENTRICITY":0.0001859,"INCLINATION":87.8945,"RA_OF_ASC_NODE":322.861,"ARG_OF_PERICENTER":69.619,"MEAN_ANOMALY":290.5139,"EPHEMERIS_TYPE":0,"CLASSIFICATION_TYPE":"U","NORAD_CAT_ID":48060,"ELEMENT_SET_NO":999,"REV_AT_EPOCH":25182,"BSTAR":-0.00077221,"MEAN_MOTION_DOT":-2.69e-06,"MEAN_MOTION_DDOT":0.0},{"OBJECT_NAME":"ONEWEB-0163","OBJECT_ID":"2021-025V","EPOCH":"2026-06-04T00:29:47.321376","MEAN_MOTION":13.13469426,"ECCENTRICITY":0.0001781,"INCLINATION":87.8953,"RA_OF_ASC_NODE":322.8426,"ARG_OF_PERICENTER":102.7132,"MEAN_ANOMALY":257.4196,"EPHEMERIS_TYPE":0,"CLASSIFICATION_TYPE":"U","NORAD_CAT_ID":48061,"ELEMENT_SET_NO":999,"REV_AT_EPOCH":25195,"BSTAR":-0.0006688,"MEAN_MOTION_DOT":-2.31e-06,"MEAN_MOTION_DDOT":0.0}]